[{"OBJECT_NAME":"VSP RF C1","OBJECT_ID":"2024-043AQ","EPOCH":"2026-03-09T21:56:05.358624","MEAN_MOTION":15.29409663,"ECCENTRICITY":0.00093965,"INCLINATION":97.5441,"RA_OF_ASC_NODE":205.1792,"ARG_OF_PERICENTER":219.6172,"MEAN_ANOMALY":140.4382,"EPHEMERIS_TYPE":0,"CLASSIFICATION_TYPE":"U","NORAD_CAT_ID":59136,"ELEMENT_SET_NO":999,"REV_AT_EPOCH":11190,"BSTAR":0.00026222052,"MEAN_MOTION_DOT":7.409e-5,"MEAN_MOTION_DDOT":0},{"OBJECT_NAME":"STARLINK-34986","OBJECT_ID":"2025-259AA","EPOCH":"2026-03-09T22:05:16.194048","MEAN_MOTION":15.27592953,"ECCENTRICITY":8.551e-5,"INCLINATION":42.9931,"RA_OF_ASC_NODE":273.2927,"ARG_OF_PERICENTER":16.5269,"MEAN_ANOMALY":343.561,"EPHEMERIS_TYPE":0,"CLASSIFICATION_TYPE":"U","NORAD_CAT_ID":66446,"ELEMENT_SET_NO":999,"REV_AT_EPOCH":1952,"BSTAR":0.00083905541,"MEAN_MOTION_DOT":0.00022908,"MEAN_MOTION_DDOT":0}]
